1 43013U 17073A   26107.94752762  .00000040  00000+0  39906-4 0  9991
2 43013  98.7738  47.9558 0002157  84.1718 275.9704 14.19545888435927
